TEVEL2-7                
1 63238U 25052AE  26068.66113295  .00019244  00000+0  69668-3 0  9998
2 63238  97.4054 324.3041 0008105 124.6830 235.5175 15.28414096 54803
STARLINK-35345          
1 65833U 25221L   26068.35202101  .00029671  00000+0  10098-2 0  9997
2 65833  53.1584  89.7746 0001290  88.4744 271.6405 15.30204197 26039
